FLOCK 4Q-16             
1 58271U 23174R   26194.18824078  .00013981  00000+0  24814-3 0  9993
2 58271  97.3834 282.9188 0006893  82.9301 277.2734 15.50311593149601
FLOCK 4Q-11             
1 58273U 23174T   26194.22643618  .00015481  00000+0  26974-3 0  9995
2 58273  97.3867 283.5910 0006507  77.5256 282.6723 15.50812471149621
FLOCK 4Q-28             
1 58280U 23174AA  26194.22243939  .00021471  00000+0  30196-3 0  9992
2 58280  97.3889 286.3044 0004952  69.9249 290.2538 15.56687948149793
FLOCK 4Q-27             
1 58282U 23174AC  26194.28875018  .00020023  00000+0  27977-3 0  9994
2 58282  97.3816 285.7810 0004160  74.3958 285.7756 15.56881693149814
FLOCK 4Q-7              
1 58318U 23174BQ  26193.79336587  .00028428  00000+0  39078-3 0  9994
2 58318  97.3926 286.1818 0004825  52.8400 307.3295 15.57250252149732
FLOCK 4Q-2              
1 58320U 23174BS  26194.27574912  .00016477  00000+0  28742-3 0  9994
2 58320  97.3848 283.3550 0005025  57.5630 302.6107 15.50776040149641
FLOCK 4Q-9              
1 58322U 23174BU  26193.71252179  .00019142  00000+0  32783-3 0  9994
2 58322  97.3863 282.8863 0005885  58.9232 301.2597 15.51258235149547
FLOCK 4Q-4              
1 58327U 23174BZ  26193.78897984  .00015736  00000+0  28427-3 0  9990
2 58327  97.3832 282.0863 0005998  81.8748 278.3184 15.49785126149527
FLOCK 4Q-13             
1 58328U 23174CA  26194.22977704  .00016272  00000+0  26391-3 0  9994
2 58328  97.4011 285.8280 0006076  61.2475 298.9387 15.52821033149715
FLOCK 4BE-18            
1 60480U 24149N   26194.03341785  .00009622  00000+0  22262-3 0  9996
2 60480  97.3729 278.0472 0004972 150.6022 209.5506 15.42676663106296
FLOCK 4BE-7             
1 60481U 24149P   26193.48054727  .00014676  00000+0  35324-3 0  9990
2 60481  97.3761 276.7820 0004099 155.1561 204.9884 15.41376569106146
FLOCK 4BE-36            
1 60486U 24149U   26193.79656295  .00012400  00000+0  27856-3 0  9991
2 60486  97.3751 278.5445 0004472 158.4731 201.6706 15.43488814106307
FLOCK 4BE-25            
1 60487U 24149V   26193.76773849  .00010433  00000+0  26781-3 0  9994
2 60487  97.3800 277.1018 0003568 147.6318 212.5147 15.39503315106174
FLOCK 4BE-31            
1 60488U 24149W   26193.80287021  .00016295  00000+0  34610-3 0  9994
2 60488  97.3799 279.4857 0003758 157.7296 202.4117 15.45092567106338
FLOCK 4BE-20            
1 60489U 24149X   26193.80873802  .00010226  00000+0  26884-3 0  9995
2 60489  97.3699 275.9575 0004693 158.3242 201.8202 15.38770429106153
FLOCK 4BE-23            
1 60490U 24149Y   26193.74088261  .00009058  00000+0  24192-3 0  9998
2 60490  97.3796 276.2776 0004536 162.7384 197.4017 15.38322323106129
