{"fetched_at":"2026-07-13T18:16:33.418Z","source":"https://celestrak.org/NORAD/elements/gp.php?GROUP=planet&FORMAT=JSON","constellation":"superdove","records":[{"OBJECT_NAME":"FLOCK 4Q-16","OBJECT_ID":"2023-174R","EPOCH":"2026-07-13T04:31:04.003392","CLASSIFICATION_TYPE":"U","MEAN_MOTION":15.50311593,"ECCENTRICITY":0.00068934,"INCLINATION":97.3834,"RA_OF_ASC_NODE":282.9188,"ARG_OF_PERICENTER":82.9301,"MEAN_ANOMALY":277.2734,"EPHEMERIS_TYPE":0,"NORAD_CAT_ID":58271,"ELEMENT_SET_NO":999,"REV_AT_EPOCH":14960,"BSTAR":0.00024814041,"MEAN_MOTION_DOT":0.00013981,"MEAN_MOTION_DDOT":0},{"OBJECT_NAME":"FLOCK 4Q-11","OBJECT_ID":"2023-174T","EPOCH":"2026-07-13T05:26:04.085952","CLASSIFICATION_TYPE":"U","MEAN_MOTION":15.50812471,"ECCENTRICITY":0.00065075,"INCLINATION":97.3867,"RA_OF_ASC_NODE":283.591,"ARG_OF_PERICENTER":77.5256,"MEAN_ANOMALY":282.6723,"EPHEMERIS_TYPE":0,"NORAD_CAT_ID":58273,"ELEMENT_SET_NO":999,"REV_AT_EPOCH":14962,"BSTAR":0.00026974254,"MEAN_MOTION_DOT":0.00015481,"MEAN_MOTION_DDOT":0},{"OBJECT_NAME":"FLOCK 4Q-28","OBJECT_ID":"2023-174AA","EPOCH":"2026-07-13T05:20:18.763296","CLASSIFICATION_TYPE":"U","MEAN_MOTION":15.56687948,"ECCENTRICITY":0.00049528,"INCLINATION":97.3889,"RA_OF_ASC_NODE":286.3044,"ARG_OF_PERICENTER":69.9249,"MEAN_ANOMALY":290.2538,"EPHEMERIS_TYPE":0,"NORAD_CAT_ID":58280,"ELEMENT_SET_NO":999,"REV_AT_EPOCH":14979,"BSTAR":0.00030195994,"MEAN_MOTION_DOT":0.00021471,"MEAN_MOTION_DDOT":0},{"OBJECT_NAME":"FLOCK 4Q-27","OBJECT_ID":"2023-174AC","EPOCH":"2026-07-13T06:55:48.015552","CLASSIFICATION_TYPE":"U","MEAN_MOTION":15.56881693,"ECCENTRICITY":0.00041609,"INCLINATION":97.3816,"RA_OF_ASC_NODE":285.781,"ARG_OF_PERICENTER":74.3958,"MEAN_ANOMALY":285.7756,"EPHEMERIS_TYPE":0,"NORAD_CAT_ID":58282,"ELEMENT_SET_NO":999,"REV_AT_EPOCH":14981,"BSTAR":0.0002797713,"MEAN_MOTION_DOT":0.00020023,"MEAN_MOTION_DDOT":0},{"OBJECT_NAME":"FLOCK 4Q-7","OBJECT_ID":"2023-174BQ","EPOCH":"2026-07-12T19:02:26.811168","CLASSIFICATION_TYPE":"U","MEAN_MOTION":15.57250252,"ECCENTRICITY":0.00048256,"INCLINATION":97.3926,"RA_OF_ASC_NODE":286.1818,"ARG_OF_PERICENTER":52.84,"MEAN_ANOMALY":307.3295,"EPHEMERIS_TYPE":0,"NORAD_CAT_ID":58318,"ELEMENT_SET_NO":999,"REV_AT_EPOCH":14973,"BSTAR":0.00039078413,"MEAN_MOTION_DOT":0.00028428,"MEAN_MOTION_DDOT":0},{"OBJECT_NAME":"FLOCK 4Q-2","OBJECT_ID":"2023-174BS","EPOCH":"2026-07-13T06:37:04.723968","CLASSIFICATION_TYPE":"U","MEAN_MOTION":15.5077604,"ECCENTRICITY":0.00050257,"INCLINATION":97.3848,"RA_OF_ASC_NODE":283.355,"ARG_OF_PERICENTER":57.563,"MEAN_ANOMALY":302.6107,"EPHEMERIS_TYPE":0,"NORAD_CAT_ID":58320,"ELEMENT_SET_NO":999,"REV_AT_EPOCH":14964,"BSTAR":0.00028741738,"MEAN_MOTION_DOT":0.00016477,"MEAN_MOTION_DDOT":0},{"OBJECT_NAME":"FLOCK 4Q-9","OBJECT_ID":"2023-174BU","EPOCH":"2026-07-12T17:06:01.882656","CLASSIFICATION_TYPE":"U","MEAN_MOTION":15.51258235,"ECCENTRICITY":0.00058857,"INCLINATION":97.3863,"RA_OF_ASC_NODE":282.8863,"ARG_OF_PERICENTER":58.9232,"MEAN_ANOMALY":301.2597,"EPHEMERIS_TYPE":0,"NORAD_CAT_ID":58322,"ELEMENT_SET_NO":999,"REV_AT_EPOCH":14954,"BSTAR":0.00032782587,"MEAN_MOTION_DOT":0.00019142,"MEAN_MOTION_DDOT":0},{"OBJECT_NAME":"FLOCK 4Q-4","OBJECT_ID":"2023-174BZ","EPOCH":"2026-07-12T18:56:07.858176","CLASSIFICATION_TYPE":"U","MEAN_MOTION":15.49785126,"ECCENTRICITY":0.00059983,"INCLINATION":97.3832,"RA_OF_ASC_NODE":282.0863,"ARG_OF_PERICENTER":81.8748,"MEAN_ANOMALY":278.3184,"EPHEMERIS_TYPE":0,"NORAD_CAT_ID":58327,"ELEMENT_SET_NO":999,"REV_AT_EPOCH":14952,"BSTAR":0.00028427272,"MEAN_MOTION_DOT":0.00015736,"MEAN_MOTION_DDOT":0},{"OBJECT_NAME":"FLOCK 4Q-13","OBJECT_ID":"2023-174CA","EPOCH":"2026-07-13T05:30:52.736256","CLASSIFICATION_TYPE":"U","MEAN_MOTION":15.52821033,"ECCENTRICITY":0.00060767,"INCLINATION":97.4011,"RA_OF_ASC_NODE":285.828,"ARG_OF_PERICENTER":61.2475,"MEAN_ANOMALY":298.9387,"EPHEMERIS_TYPE":0,"NORAD_CAT_ID":58328,"ELEMENT_SET_NO":999,"REV_AT_EPOCH":14971,"BSTAR":0.00026390761,"MEAN_MOTION_DOT":0.00016272,"MEAN_MOTION_DDOT":0},{"OBJECT_NAME":"FLOCK 4BE-18","OBJECT_ID":"2024-149N","EPOCH":"2026-07-13T00:48:07.302240","CLASSIFICATION_TYPE":"U","MEAN_MOTION":15.42676663,"ECCENTRICITY":0.00049727,"INCLINATION":97.3729,"RA_OF_ASC_NODE":278.0472,"ARG_OF_PERICENTER":150.6022,"MEAN_ANOMALY":209.5506,"EPHEMERIS_TYPE":0,"NORAD_CAT_ID":60480,"ELEMENT_SET_NO":999,"REV_AT_EPOCH":10629,"BSTAR":0.00022261528,"MEAN_MOTION_DOT":0.00009622,"MEAN_MOTION_DDOT":0},{"OBJECT_NAME":"FLOCK 4BE-7","OBJECT_ID":"2024-149P","EPOCH":"2026-07-12T11:31:59.284128","CLASSIFICATION_TYPE":"U","MEAN_MOTION":15.41376569,"ECCENTRICITY":0.00040992,"INCLINATION":97.3761,"RA_OF_ASC_NODE":276.782,"ARG_OF_PERICENTER":155.1561,"MEAN_ANOMALY":204.9884,"EPHEMERIS_TYPE":0,"NORAD_CAT_ID":60481,"ELEMENT_SET_NO":999,"REV_AT_EPOCH":10614,"BSTAR":0.00035323825,"MEAN_MOTION_DOT":0.00014676,"MEAN_MOTION_DDOT":0},{"OBJECT_NAME":"FLOCK 4BE-36","OBJECT_ID":"2024-149U","EPOCH":"2026-07-12T19:07:03.038880","CLASSIFICATION_TYPE":"U","MEAN_MOTION":15.43488814,"ECCENTRICITY":0.00044721,"INCLINATION":97.3751,"RA_OF_ASC_NODE":278.5445,"ARG_OF_PERICENTER":158.4731,"MEAN_ANOMALY":201.6706,"EPHEMERIS_TYPE":0,"NORAD_CAT_ID":60486,"ELEMENT_SET_NO":999,"REV_AT_EPOCH":10630,"BSTAR":0.00027856103,"MEAN_MOTION_DOT":0.000124,"MEAN_MOTION_DDOT":0},{"OBJECT_NAME":"FLOCK 4BE-25","OBJECT_ID":"2024-149V","EPOCH":"2026-07-12T18:25:32.605536","CLASSIFICATION_TYPE":"U","MEAN_MOTION":15.39503315,"ECCENTRICITY":0.00035683,"INCLINATION":97.38,"RA_OF_ASC_NODE":277.1018,"ARG_OF_PERICENTER":147.6318,"MEAN_ANOMALY":212.5147,"EPHEMERIS_TYPE":0,"NORAD_CAT_ID":60487,"ELEMENT_SET_NO":999,"REV_AT_EPOCH":10617,"BSTAR":0.0002678115,"MEAN_MOTION_DOT":0.00010433,"MEAN_MOTION_DDOT":0},{"OBJECT_NAME":"FLOCK 4BE-31","OBJECT_ID":"2024-149W","EPOCH":"2026-07-12T19:16:07.986144","CLASSIFICATION_TYPE":"U","MEAN_MOTION":15.45092567,"ECCENTRICITY":0.00037585,"INCLINATION":97.3799,"RA_OF_ASC_NODE":279.4857,"ARG_OF_PERICENTER":157.7296,"MEAN_ANOMALY":202.4117,"EPHEMERIS_TYPE":0,"NORAD_CAT_ID":60488,"ELEMENT_SET_NO":999,"REV_AT_EPOCH":10633,"BSTAR":0.00034610006,"MEAN_MOTION_DOT":0.00016295,"MEAN_MOTION_DDOT":0},{"OBJECT_NAME":"FLOCK 4BE-20","OBJECT_ID":"2024-149X","EPOCH":"2026-07-12T19:24:34.964928","CLASSIFICATION_TYPE":"U","MEAN_MOTION":15.38770429,"ECCENTRICITY":0.00046939,"INCLINATION":97.3699,"RA_OF_ASC_NODE":275.9575,"ARG_OF_PERICENTER":158.3242,"MEAN_ANOMALY":201.8202,"EPHEMERIS_TYPE":0,"NORAD_CAT_ID":60489,"ELEMENT_SET_NO":999,"REV_AT_EPOCH":10615,"BSTAR":0.00026884065,"MEAN_MOTION_DOT":0.00010226,"MEAN_MOTION_DDOT":0},{"OBJECT_NAME":"FLOCK 4BE-23","OBJECT_ID":"2024-149Y","EPOCH":"2026-07-12T17:46:52.257504","CLASSIFICATION_TYPE":"U","MEAN_MOTION":15.38322323,"ECCENTRICITY":0.00045369,"INCLINATION":97.3796,"RA_OF_ASC_NODE":276.2776,"ARG_OF_PERICENTER":162.7384,"MEAN_ANOMALY":197.4017,"EPHEMERIS_TYPE":0,"NORAD_CAT_ID":60490,"ELEMENT_SET_NO":999,"REV_AT_EPOCH":10612,"BSTAR":0.00024192331,"MEAN_MOTION_DOT":0.00009058,"MEAN_MOTION_DDOT":0}]}
